{
  "type": "FeatureCollection",
  "features": [
    {
      "type": "Feature",
      "properties": {
        "norad_id": 42988,
        "name": "SKYSAT-C10",
        "group": "resource",
        "lat": -30.38704704119622,
        "lon": -76.9827741728698,
        "alt_km": 475.9328438344428,
        "timestamp": "2025-12-02T13:52:16.933263+00:00",
        "meta_object_name": "SKYSAT-C10",
        "meta_object_id": "2017-068B",
        "meta_epoch": "2025-12-01T21:16:44.709312",
        "meta_mean_motion": 15.31940843,
        "meta_eccentricity": 0.00054575,
        "meta_inclination": 97.425,
        "meta_ra_of_asc_node": 106.7102,
        "meta_arg_of_pericenter": 124.6078,
        "meta_mean_anomaly": 235.5679,
        "meta_ephemeris_type": 0,
        "meta_classification_type": "U",
        "meta_norad_cat_id": 42988,
        "meta_element_set_no": 999,
        "meta_rev_at_epoch": 45213,
        "meta_bstar": 0.00041100037,
        "meta_mean_motion_dot": 0.00012609,
        "meta_mean_motion_ddot": 0,
        "tle_line1": "1 42988U 17068B   25335.88662858  .00012609  00000+0  41100-3 0  9998",
        "tle_line2": "2 42988  97.4250 106.7102 0005457 124.6078 235.5679 15.31940843452136"
      },
      "geometry": {
        "type": "Point",
        "coordinates": [
          -76.9827741728698,
          -30.38704704119622
        ]
      }
    },
    {
      "type": "Feature",
      "properties": {
        "norad_id": 42989,
        "name": "SKYSAT-C9",
        "group": "resource",
        "lat": -81.11137254536095,
        "lon": 163.17118761633031,
        "alt_km": 472.95374175477355,
        "timestamp": "2025-12-02T13:52:16.933273+00:00",
        "meta_object_name": "SKYSAT-C9",
        "meta_object_id": "2017-068C",
        "meta_epoch": "2025-12-01T21:02:21.659712",
        "meta_mean_motion": 15.35612414,
        "meta_eccentricity": 0.00106287,
        "meta_inclination": 97.4179,
        "meta_ra_of_asc_node": 106.0488,
        "meta_arg_of_pericenter": 123.1195,
        "meta_mean_anomaly": 237.1071,
        "meta_ephemeris_type": 0,
        "meta_classification_type": "U",
        "meta_norad_cat_id": 42989,
        "meta_element_set_no": 999,
        "meta_rev_at_epoch": 45241,
        "meta_bstar": 0.00043729142,
        "meta_mean_motion_dot": 0.00015097,
        "meta_mean_motion_ddot": 0,
        "tle_line1": "1 42989U 17068C   25335.87663958  .00015097  00000+0  43729-3 0  9993",
        "tle_line2": "2 42989  97.4179 106.0488 0010628 123.1195 237.1071 15.35612414452416"
      },
      "geometry": {
        "type": "Point",
        "coordinates": [
          163.17118761633031,
          -81.11137254536095
        ]
      }
    },
    {
      "type": "Feature",
      "properties": {
        "norad_id": 42990,
        "name": "SKYSAT-C8",
        "group": "resource",
        "lat": -1.1450257168437759,
        "lon": 106.68614716683427,
        "alt_km": 470.0226628629089,
        "timestamp": "2025-12-02T13:52:16.933283+00:00",
        "meta_object_name": "SKYSAT-C8",
        "meta_object_id": "2017-068D",
        "meta_epoch": "2025-12-01T22:12:22.169376",
        "meta_mean_motion": 15.32546383,
        "meta_eccentricity": 0.00022133,
        "meta_inclination": 97.427,
        "meta_ra_of_asc_node": 105.8818,
        "meta_arg_of_pericenter": 24.1716,
        "meta_mean_anomaly": 335.9629,
        "meta_ephemeris_type": 0,
        "meta_classification_type": "U",
        "meta_norad_cat_id": 42990,
        "meta_element_set_no": 999,
        "meta_rev_at_epoch": 45205,
        "meta_bstar": 0.00042311963,
        "meta_mean_motion_dot": 0.00013228,
        "meta_mean_motion_ddot": 0,
        "tle_line1": "1 42990U 17068D   25335.92525659  .00013228  00000+0  42312-3 0  9997",
        "tle_line2": "2 42990  97.4270 105.8818 0002213  24.1716 335.9629 15.32546383452058"
      },
      "geometry": {
        "type": "Point",
        "coordinates": [
          106.68614716683427,
          -1.1450257168437759
        ]
      }
    },
    {
      "type": "Feature",
      "properties": {
        "norad_id": 42991,
        "name": "SKYSAT-C7",
        "group": "resource",
        "lat": -55.467134977025424,
        "lon": -83.34268263974438,
        "alt_km": 481.5657469626458,
        "timestamp": "2025-12-02T13:52:16.933292+00:00",
        "meta_object_name": "SKYSAT-C7",
        "meta_object_id": "2017-068E",
        "meta_epoch": "2025-12-02T03:26:19.167360",
        "meta_mean_motion": 15.31962717,
        "meta_eccentricity": 0.00078747,
        "meta_inclination": 97.4278,
        "meta_ra_of_asc_node": 107.1504,
        "meta_arg_of_pericenter": 90.0966,
        "meta_mean_anomaly": 270.1178,
        "meta_ephemeris_type": 0,
        "meta_classification_type": "U",
        "meta_norad_cat_id": 42991,
        "meta_element_set_no": 999,
        "meta_rev_at_epoch": 45215,
        "meta_bstar": 0.00043051617,
        "meta_mean_motion_dot": 0.00013228,
        "meta_mean_motion_ddot": 0,
        "tle_line1": "1 42991U 17068E   25336.14327740  .00013228  00000+0  43052-3 0  9996",
        "tle_line2": "2 42991  97.4278 107.1504 0007874  90.0966 270.1178 15.31962717452153"
      },
      "geometry": {
        "type": "Point",
        "coordinates": [
          -83.34268263974438,
          -55.467134977025424
        ]
      }
    },
    {
      "type": "Feature",
      "properties": {
        "norad_id": 42992,
        "name": "SKYSAT-C6",
        "group": "resource",
        "lat": 22.883665613894788,
        "lon": 104.87472113949798,
        "alt_km": 471.95347482718716,
        "timestamp": "2025-12-02T13:52:16.933302+00:00",
        "meta_object_name": "SKYSAT-C6",
        "meta_object_id": "2017-068F",
        "meta_epoch": "2025-12-02T02:47:29.682528",
        "meta_mean_motion": 15.31141355,
        "meta_eccentricity": 0.00051269,
        "meta_inclination": 97.4312,
        "meta_ra_of_asc_node": 107.5703,
        "meta_arg_of_pericenter": 112.7982,
        "meta_mean_anomaly": 247.3802,
        "meta_ephemeris_type": 0,
        "meta_classification_type": "U",
        "meta_norad_cat_id": 42992,
        "meta_element_set_no": 999,
        "meta_rev_at_epoch": 45213,
        "meta_bstar": 0.00044335464,
        "meta_mean_motion_dot": 0.00013273,
        "meta_mean_motion_ddot": 0,
        "tle_line1": "1 42992U 17068F   25336.11631577  .00013273  00000+0  44335-3 0  9995",
        "tle_line2": "2 42992  97.4312 107.5703 0005126 112.7982 247.3802 15.31141355452131"
      },
      "geometry": {
        "type": "Point",
        "coordinates": [
          104.87472113949798,
          22.883665613894788
        ]
      }
    },
    {
      "type": "Feature",
      "properties": {
        "norad_id": 43111,
        "name": "CARTOSAT-2F",
        "group": "resource",
        "lat": -31.062091499936365,
        "lon": -150.13122190577892,
        "alt_km": 513.3903567592806,
        "timestamp": "2025-12-02T13:52:16.933314+00:00",
        "meta_object_name": "CARTOSAT-2F",
        "meta_object_id": "2018-004A",
        "meta_epoch": "2025-12-01T21:08:16.196064",
        "meta_mean_motion": 15.19324266,
        "meta_eccentricity": 9.074e-05,
        "meta_inclination": 97.4331,
        "meta_ra_of_asc_node": 33.6929,
        "meta_arg_of_pericenter": 193.2914,
        "meta_mean_anomaly": 166.8297,
        "meta_ephemeris_type": 0,
        "meta_classification_type": "U",
        "meta_norad_cat_id": 43111,
        "meta_element_set_no": 999,
        "meta_rev_at_epoch": 43737,
        "meta_bstar": 6.1441308e-05,
        "meta_mean_motion_dot": 1.23e-05,
        "meta_mean_motion_ddot": 0,
        "tle_line1": "1 43111U 18004A   25335.88074301  .00001230  00000+0  61441-4 0  9997",
        "tle_line2": "2 43111  97.4331  33.6929 0000907 193.2914 166.8297 15.19324266437378"
      },
      "geometry": {
        "type": "Point",
        "coordinates": [
          -150.13122190577892,
          -31.062091499936365
        ]
      }
    },
    {
      "type": "Feature",
      "properties": {
        "norad_id": 43259,
        "name": "GAOFEN-1 02",
        "group": "resource",
        "lat": 77.347448590604,
        "lon": -106.36693391677265,
        "alt_km": 634.1620856498885,
        "timestamp": "2025-12-02T13:52:16.933325+00:00",
        "meta_object_name": "GAOFEN-1 02",
        "meta_object_id": "2018-031A",
        "meta_epoch": "2025-12-02T06:54:54.514944",
        "meta_mean_motion": 14.76444412,
        "meta_eccentricity": 0.00012808,
        "meta_inclination": 98.0821,
        "meta_ra_of_asc_node": 34.0727,
        "meta_arg_of_pericenter": 265.0977,
        "meta_mean_anomaly": 95.0086,
        "meta_ephemeris_type": 0,
        "meta_classification_type": "U",
        "meta_norad_cat_id": 43259,
        "meta_element_set_no": 999,
        "meta_rev_at_epoch": 41364,
        "meta_bstar": 0.00019207615,
        "meta_mean_motion_dot": 1.284e-05,
        "meta_mean_motion_ddot": 0,
        "tle_line1": "1 43259U 18031A   25336.28813096  .00001284  00000+0  19208-3 0  9999",
        "tle_line2": "2 43259  98.0821  34.0727 0001280 265.0977  95.0086 14.76444412413646"
      },
      "geometry": {
        "type": "Point",
        "coordinates": [
          -106.36693391677265,
          77.347448590604
        ]
      }
    }
  ]
}